FLOCK 4BE-17            
1 60492U 24149AA  26200.76916735  .00009345  00000+0  23123-3 0  9999
2 60492  97.3759 284.4147 0004584 134.8768 225.2852 15.40656480107273
FLOCK 4BE-22            
1 60494U 24149AC  26200.78599756  .00031230  00000+0  72931-3 0  9992
2 60494  97.3722 284.6756 0005028 143.6358 216.5231 15.42128028107324
FLOCK 4BE-34            
1 60495U 24149AD  26200.73880112  .00009122  00000+0  21571-3 0  9996
2 60495  97.3773 285.4711 0005166 148.7743 211.3812 15.42034402107340
FLOCK 4BE-32            
1 60497U 24149AF  26200.74950166  .00010710  00000+0  24334-3 0  9991
2 60497  97.3708 285.0520 0005256 146.7057 213.4522 15.43185411107350
FLOCK 4BE-11            
1 60501U 24149AK  26200.72719252  .00011128  00000+0  24613-3 0  9998
2 60501  97.3686 285.2900 0005312 145.9744 214.1846 15.43976188107370
FLOCK 4BE-24            
1 60505U 24149AP  26200.77500975  .00011971  00000+0  26253-3 0  9995
2 60505  97.3698 285.6097 0005349 156.6131 203.5362 15.44211543107392
FLOCK 4BE-29            
1 60509U 24149AT  26200.76168911  .00024880  00000+0  51583-3 0  9995
2 60509  97.3800 287.1558 0003877 165.2767 194.8596 15.45716022107445
FLOCK 4BE-2             
1 60511U 24149AV  26200.75888241  .00039242  00000+0  55771-3 0  9993
2 60511  97.3816 289.0717 0005504 160.7026 199.4439 15.56281614107566
FLOCK 4BE-13            
1 60512U 24149AW  26200.79047602  .00008084  00000+0  18727-3 0  9996
2 60512  97.3709 285.5587 0005401 142.5347 217.6278 15.42692837107397
FLOCK 4BE-27            
1 60513U 24149AX  26200.79470000  .00004994  00000+0  14962-3 0  9992
2 60513  97.3816 282.6724 0004369 167.5302 192.6050 15.34964589107148
FLOCK 4BE-9             
1 60514U 24149AY  26200.81168059  .00011050  00000+0  26366-3 0  9996
2 60514  97.3785 285.4200 0003938 159.1744 200.9664 15.41712161107343
FLOCK 4BE-6             
1 60516U 24149BA  26200.67219030  .00008139  00000+0  20344-3 0  9992
2 60516  97.3778 284.5741 0004796 160.3202 199.8231 15.40391844107271
FLOCK 4BE-14            
1 60517U 24149BB  26200.75442546  .00010020  00000+0  23738-3 0  9994
2 60517  97.3683 284.8256 0005732 162.6955 197.4488 15.41946686107349
FLOCK 4BE-1             
1 60518U 24149BC  26200.80071834  .00010195  00000+0  22849-3 0  9994
2 60518  97.3769 286.2680 0005383 162.0046 198.1393 15.43608192107408
FLOCK 4BE-28            
1 60519U 24149BD  26200.76261617  .00024971  00000+0  50330-3 0  9993
2 60519  97.3739 287.0624 0005476 162.1478 197.9965 15.46533081107472
FLOCK 4BE-5             
1 60559U 24149CV  26200.76023760  .00009649  00000+0  23498-3 0  9992
2 60559  97.3832 285.0929 0004412 158.7520 201.3911 15.41130217107294
