{"fetched_at":"2026-07-20T07:40:25.481Z","source":"https://celestrak.org/NORAD/elements/gp.php?GROUP=planet&FORMAT=JSON","constellation":"superdove","records":[{"OBJECT_NAME":"FLOCK 4BE-17","OBJECT_ID":"2024-149AA","EPOCH":"2026-07-19T18:27:36.059040","CLASSIFICATION_TYPE":"U","MEAN_MOTION":15.4065648,"ECCENTRICITY":0.0004584,"INCLINATION":97.3759,"RA_OF_ASC_NODE":284.4147,"ARG_OF_PERICENTER":134.8768,"MEAN_ANOMALY":225.2852,"EPHEMERIS_TYPE":0,"NORAD_CAT_ID":60492,"ELEMENT_SET_NO":999,"REV_AT_EPOCH":10727,"BSTAR":0.00023123,"MEAN_MOTION_DOT":0.00009345,"MEAN_MOTION_DDOT":0},{"OBJECT_NAME":"FLOCK 4BE-22","OBJECT_ID":"2024-149AC","EPOCH":"2026-07-19T18:51:50.189184","CLASSIFICATION_TYPE":"U","MEAN_MOTION":15.42128028,"ECCENTRICITY":0.0005028,"INCLINATION":97.3722,"RA_OF_ASC_NODE":284.6756,"ARG_OF_PERICENTER":143.6358,"MEAN_ANOMALY":216.5231,"EPHEMERIS_TYPE":0,"NORAD_CAT_ID":60494,"ELEMENT_SET_NO":999,"REV_AT_EPOCH":10732,"BSTAR":0.00072931,"MEAN_MOTION_DOT":0.0003123,"MEAN_MOTION_DDOT":0},{"OBJECT_NAME":"FLOCK 4BE-34","OBJECT_ID":"2024-149AD","EPOCH":"2026-07-19T17:43:52.416768","CLASSIFICATION_TYPE":"U","MEAN_MOTION":15.42034402,"ECCENTRICITY":0.0005166,"INCLINATION":97.3773,"RA_OF_ASC_NODE":285.4711,"ARG_OF_PERICENTER":148.7743,"MEAN_ANOMALY":211.3812,"EPHEMERIS_TYPE":0,"NORAD_CAT_ID":60495,"ELEMENT_SET_NO":999,"REV_AT_EPOCH":10734,"BSTAR":0.00021571,"MEAN_MOTION_DOT":0.00009122,"MEAN_MOTION_DDOT":0},{"OBJECT_NAME":"FLOCK 4BE-32","OBJECT_ID":"2024-149AF","EPOCH":"2026-07-19T17:59:16.943424","CLASSIFICATION_TYPE":"U","MEAN_MOTION":15.43185411,"ECCENTRICITY":0.0005256,"INCLINATION":97.3708,"RA_OF_ASC_NODE":285.052,"ARG_OF_PERICENTER":146.7057,"MEAN_ANOMALY":213.4522,"EPHEMERIS_TYPE":0,"NORAD_CAT_ID":60497,"ELEMENT_SET_NO":999,"REV_AT_EPOCH":10735,"BSTAR":0.00024334,"MEAN_MOTION_DOT":0.0001071,"MEAN_MOTION_DDOT":0},{"OBJECT_NAME":"FLOCK 4BE-11","OBJECT_ID":"2024-149AK","EPOCH":"2026-07-19T17:27:09.433728","CLASSIFICATION_TYPE":"U","MEAN_MOTION":15.43976188,"ECCENTRICITY":0.0005312,"INCLINATION":97.3686,"RA_OF_ASC_NODE":285.29,"ARG_OF_PERICENTER":145.9744,"MEAN_ANOMALY":214.1846,"EPHEMERIS_TYPE":0,"NORAD_CAT_ID":60501,"ELEMENT_SET_NO":999,"REV_AT_EPOCH":10737,"BSTAR":0.00024613,"MEAN_MOTION_DOT":0.00011128,"MEAN_MOTION_DDOT":0},{"OBJECT_NAME":"FLOCK 4BE-24","OBJECT_ID":"2024-149AP","EPOCH":"2026-07-19T18:36:00.842400","CLASSIFICATION_TYPE":"U","MEAN_MOTION":15.44211543,"ECCENTRICITY":0.0005349,"INCLINATION":97.3698,"RA_OF_ASC_NODE":285.6097,"ARG_OF_PERICENTER":156.6131,"MEAN_ANOMALY":203.5362,"EPHEMERIS_TYPE":0,"NORAD_CAT_ID":60505,"ELEMENT_SET_NO":999,"REV_AT_EPOCH":10739,"BSTAR":0.00026253,"MEAN_MOTION_DOT":0.00011971,"MEAN_MOTION_DDOT":0},{"OBJECT_NAME":"FLOCK 4BE-29","OBJECT_ID":"2024-149AT","EPOCH":"2026-07-19T18:16:49.939104","CLASSIFICATION_TYPE":"U","MEAN_MOTION":15.45716022,"ECCENTRICITY":0.0003877,"INCLINATION":97.38,"RA_OF_ASC_NODE":287.1558,"ARG_OF_PERICENTER":165.2767,"MEAN_ANOMALY":194.8596,"EPHEMERIS_TYPE":0,"NORAD_CAT_ID":60509,"ELEMENT_SET_NO":999,"REV_AT_EPOCH":10744,"BSTAR":0.00051583,"MEAN_MOTION_DOT":0.0002488,"MEAN_MOTION_DDOT":0},{"OBJECT_NAME":"FLOCK 4BE-2","OBJECT_ID":"2024-149AV","EPOCH":"2026-07-19T18:12:47.440224","CLASSIFICATION_TYPE":"U","MEAN_MOTION":15.56281614,"ECCENTRICITY":0.0005504,"INCLINATION":97.3816,"RA_OF_ASC_NODE":289.0717,"ARG_OF_PERICENTER":160.7026,"MEAN_ANOMALY":199.4439,"EPHEMERIS_TYPE":0,"NORAD_CAT_ID":60511,"ELEMENT_SET_NO":999,"REV_AT_EPOCH":10756,"BSTAR":0.00055771,"MEAN_MOTION_DOT":0.00039242,"MEAN_MOTION_DDOT":0},{"OBJECT_NAME":"FLOCK 4BE-13","OBJECT_ID":"2024-149AW","EPOCH":"2026-07-19T18:58:17.128128","CLASSIFICATION_TYPE":"U","MEAN_MOTION":15.42692837,"ECCENTRICITY":0.0005401,"INCLINATION":97.3709,"RA_OF_ASC_NODE":285.5587,"ARG_OF_PERICENTER":142.5347,"MEAN_ANOMALY":217.6278,"EPHEMERIS_TYPE":0,"NORAD_CAT_ID":60512,"ELEMENT_SET_NO":999,"REV_AT_EPOCH":10739,"BSTAR":0.00018727,"MEAN_MOTION_DOT":0.00008084,"MEAN_MOTION_DDOT":0},{"OBJECT_NAME":"FLOCK 4BE-27","OBJECT_ID":"2024-149AX","EPOCH":"2026-07-19T19:04:22.080000","CLASSIFICATION_TYPE":"U","MEAN_MOTION":15.34964589,"ECCENTRICITY":0.0004369,"INCLINATION":97.3816,"RA_OF_ASC_NODE":282.6724,"ARG_OF_PERICENTER":167.5302,"MEAN_ANOMALY":192.605,"EPHEMERIS_TYPE":0,"NORAD_CAT_ID":60513,"ELEMENT_SET_NO":999,"REV_AT_EPOCH":10714,"BSTAR":0.00014962,"MEAN_MOTION_DOT":0.00004994,"MEAN_MOTION_DDOT":0},{"OBJECT_NAME":"FLOCK 4BE-9","OBJECT_ID":"2024-149AY","EPOCH":"2026-07-19T19:28:49.202976","CLASSIFICATION_TYPE":"U","MEAN_MOTION":15.41712161,"ECCENTRICITY":0.0003938,"INCLINATION":97.3785,"RA_OF_ASC_NODE":285.42,"ARG_OF_PERICENTER":159.1744,"MEAN_ANOMALY":200.9664,"EPHEMERIS_TYPE":0,"NORAD_CAT_ID":60514,"ELEMENT_SET_NO":999,"REV_AT_EPOCH":10734,"BSTAR":0.00026366,"MEAN_MOTION_DOT":0.0001105,"MEAN_MOTION_DDOT":0},{"OBJECT_NAME":"FLOCK 4BE-6","OBJECT_ID":"2024-149BA","EPOCH":"2026-07-19T16:07:57.241920","CLASSIFICATION_TYPE":"U","MEAN_MOTION":15.40391844,"ECCENTRICITY":0.0004796,"INCLINATION":97.3778,"RA_OF_ASC_NODE":284.5741,"ARG_OF_PERICENTER":160.3202,"MEAN_ANOMALY":199.8231,"EPHEMERIS_TYPE":0,"NORAD_CAT_ID":60516,"ELEMENT_SET_NO":999,"REV_AT_EPOCH":10727,"BSTAR":0.00020344,"MEAN_MOTION_DOT":0.00008139,"MEAN_MOTION_DDOT":0},{"OBJECT_NAME":"FLOCK 4BE-14","OBJECT_ID":"2024-149BB","EPOCH":"2026-07-19T18:06:22.359744","CLASSIFICATION_TYPE":"U","MEAN_MOTION":15.41946686,"ECCENTRICITY":0.0005732,"INCLINATION":97.3683,"RA_OF_ASC_NODE":284.8256,"ARG_OF_PERICENTER":162.6955,"MEAN_ANOMALY":197.4488,"EPHEMERIS_TYPE":0,"NORAD_CAT_ID":60517,"ELEMENT_SET_NO":999,"REV_AT_EPOCH":10734,"BSTAR":0.00023738,"MEAN_MOTION_DOT":0.0001002,"MEAN_MOTION_DDOT":0},{"OBJECT_NAME":"FLOCK 4BE-1","OBJECT_ID":"2024-149BC","EPOCH":"2026-07-19T19:13:02.064576","CLASSIFICATION_TYPE":"U","MEAN_MOTION":15.43608192,"ECCENTRICITY":0.0005383,"INCLINATION":97.3769,"RA_OF_ASC_NODE":286.268,"ARG_OF_PERICENTER":162.0046,"MEAN_ANOMALY":198.1393,"EPHEMERIS_TYPE":0,"NORAD_CAT_ID":60518,"ELEMENT_SET_NO":999,"REV_AT_EPOCH":10740,"BSTAR":0.00022849,"MEAN_MOTION_DOT":0.00010195,"MEAN_MOTION_DDOT":0},{"OBJECT_NAME":"FLOCK 4BE-28","OBJECT_ID":"2024-149BD","EPOCH":"2026-07-19T18:18:10.037088","CLASSIFICATION_TYPE":"U","MEAN_MOTION":15.46533081,"ECCENTRICITY":0.0005476,"INCLINATION":97.3739,"RA_OF_ASC_NODE":287.0624,"ARG_OF_PERICENTER":162.1478,"MEAN_ANOMALY":197.9965,"EPHEMERIS_TYPE":0,"NORAD_CAT_ID":60519,"ELEMENT_SET_NO":999,"REV_AT_EPOCH":10747,"BSTAR":0.0005033,"MEAN_MOTION_DOT":0.00024971,"MEAN_MOTION_DDOT":0},{"OBJECT_NAME":"FLOCK 4BE-5","OBJECT_ID":"2024-149CV","EPOCH":"2026-07-19T18:14:44.528640","CLASSIFICATION_TYPE":"U","MEAN_MOTION":15.41130217,"ECCENTRICITY":0.0004412,"INCLINATION":97.3832,"RA_OF_ASC_NODE":285.0929,"ARG_OF_PERICENTER":158.752,"MEAN_ANOMALY":201.3911,"EPHEMERIS_TYPE":0,"NORAD_CAT_ID":60559,"ELEMENT_SET_NO":999,"REV_AT_EPOCH":10729,"BSTAR":0.00023498,"MEAN_MOTION_DOT":0.00009649,"MEAN_MOTION_DDOT":0}]}
